{"type": "FeatureCollection", "features": [ {"type": "Feature", "properties": {"norad_id": 33799, "name": "COSMOS 2251 DEB", "group": "cosmos-2251-debris", "lat": 47.09608310513249, "lon": 118.94080598530391, "alt_km": 636.7831467040096, "timestamp": "2025-12-02T23:34:15.909699+00:00", "meta": {"OBJECT_NAME": "COSMOS 2251 DEB", "OBJECT_ID": "1993-036AQ", "EPOCH": "2025-12-02T10:38:07.359936", "MEAN_MOTION": 14.79283098, "ECCENTRICITY": 0.0024671, "INCLINATION": 74.0311, "RA_OF_ASC_NODE": 102.0559, "ARG_OF_PERICENTER": 175.3474, "MEAN_ANOMALY": 245.4377, "EPHEMERIS_TYPE": 0, "CLASSIFICATION_TYPE": "U", "NORAD_CAT_ID": 33799, "ELEMENT_SET_NO": 999, "REV_AT_EPOCH": 88659, "BSTAR": 0.0023015, "MEAN_MOTION_DOT": 0.00017217, "MEAN_MOTION_DDOT": 0}, "tle": {"line1": "1 33799U 93036AQ  25336.44314074  .00017217  00000+0  23015-2 0  9998", "line2": "2 33799  74.0311 102.0559 0024671 175.3474 245.4377 14.79283098886591"}}, "geometry": {"type": "Point", "coordinates": [118.94080598530391, 47.09608310513249]}}, {"type": "Feature", "properties": {"norad_id": 33805, "name": "COSMOS 2251 DEB", "group": "cosmos-2251-debris", "lat": -41.74971566822084, "lon": 164.7026085315782, "alt_km": 686.1966442366675, "timestamp": "2025-12-02T23:34:15.909710+00:00", "meta": {"OBJECT_NAME": "COSMOS 2251 DEB", "OBJECT_ID": "1993-036AW", "EPOCH": "2025-12-02T09:22:33.429216", "MEAN_MOTION": 14.57816479, "ECCENTRICITY": 0.0060657, "INCLINATION": 74.0305, "RA_OF_ASC_NODE": 331.0192, "ARG_OF_PERICENTER": 162.8871, "MEAN_ANOMALY": 197.4358, "EPHEMERIS_TYPE": 0, "CLASSIFICATION_TYPE": "U", "NORAD_CAT_ID": 33805, "ELEMENT_SET_NO": 999, "REV_AT_EPOCH": 89076, "BSTAR": 0.00032833, "MEAN_MOTION_DOT": 1.511e-05, "MEAN_MOTION_DDOT": 0}, "tle": {"line1": "1 33805U 93036AW  25336.39066469  .00001511  00000+0  32833-3 0  9991", "line2": "2 33805  74.0305 331.0192 0060657 162.8871 197.4358 14.57816479890765"}}, "geometry": {"type": "Point", "coordinates": [164.7026085315782, -41.74971566822084]}}, {"type": "Feature", "properties": {"norad_id": 33811, "name": "COSMOS 2251 DEB", "group": "cosmos-2251-debris", "lat": -51.917567991817464, "lon": 164.60953257386188, "alt_km": 579.7295424259073, "timestamp": "2025-12-02T23:34:15.909721+00:00", "meta": {"OBJECT_NAME": "COSMOS 2251 DEB", "OBJECT_ID": "1993-036BC", "EPOCH": "2025-12-02T10:28:15.323808", "MEAN_MOTION": 15.04746255, "ECCENTRICITY": 0.0030649, "INCLINATION": 73.8375, "RA_OF_ASC_NODE": 324.018, "ARG_OF_PERICENTER": 46.2412, "MEAN_ANOMALY": 113.1447, "EPHEMERIS_TYPE": 0, "CLASSIFICATION_TYPE": "U", "NORAD_CAT_ID": 33811, "ELEMENT_SET_NO": 999, "REV_AT_EPOCH": 89863, "BSTAR": 0.0016893, "MEAN_MOTION_DOT": 0.00024105, "MEAN_MOTION_DDOT": 0}, "tle": {"line1": "1 33811U 93036BC  25336.43628847  .00024105  00000+0  16893-2 0  9998", "line2": "2 33811  73.8375 324.0180 0030649  46.2412 113.1447 15.04746255898634"}}, "geometry": {"type": "Point", "coordinates": [164.60953257386188, -51.917567991817464]}}, {"type": "Feature", "properties": {"norad_id": 33815, "name": "COSMOS 2251 DEB", "group": "cosmos-2251-debris", "lat": -73.58406654707824, "lon": 94.64513711092934, "alt_km": 526.0158923323679, "timestamp": "2025-12-02T23:34:15.909732+00:00", "meta": {"OBJECT_NAME": "COSMOS 2251 DEB", "OBJECT_ID": "1993-036BG", "EPOCH": "2025-12-02T08:54:02.101824", "MEAN_MOTION": 15.14489448, "ECCENTRICITY": 0.0004691, "INCLINATION": 73.9563, "RA_OF_ASC_NODE": 198.2985, "ARG_OF_PERICENTER": 247.7416, "MEAN_ANOMALY": 287.2887, "EPHEMERIS_TYPE": 0, "CLASSIFICATION_TYPE": "U", "NORAD_CAT_ID": 33815, "ELEMENT_SET_NO": 999, "REV_AT_EPOCH": 88213, "BSTAR": 0.0061517, "MEAN_MOTION_DOT": 0.00115081, "MEAN_MOTION_DDOT": 0}, "tle": {"line1": "1 33815U 93036BG  25336.37085766  .00115081  00000+0  61517-2 0  9999", "line2": "2 33815  73.9563 198.2985 0004691 247.7416 287.2887 15.14489448882130"}}, "geometry": {"type": "Point", "coordinates": [94.64513711092934, -73.58406654707824]}}, {"type": "Feature", "properties": {"norad_id": 33816, "name": "COSMOS 2251 DEB", "group": "cosmos-2251-debris", "lat": 7.570939048978055, "lon": -60.267608574864276, "alt_km": 798.4714092851109, "timestamp": "2025-12-02T23:34:15.909743+00:00", "meta": {"OBJECT_NAME": "COSMOS 2251 DEB", "OBJECT_ID": "1993-036BH", "EPOCH": "2025-12-02T12:20:03.698880", "MEAN_MOTION": 13.81758219, "ECCENTRICITY": 0.0265355, "INCLINATION": 73.8935, "RA_OF_ASC_NODE": 122.7266, "ARG_OF_PERICENTER": 137.6408, "MEAN_ANOMALY": 224.5543, "EPHEMERIS_TYPE": 0, "CLASSIFICATION_TYPE": "U", "NORAD_CAT_ID": 33816, "ELEMENT_SET_NO": 999, "REV_AT_EPOCH": 84532, "BSTAR": 0.00074314, "MEAN_MOTION_DOT": 1.017e-05, "MEAN_MOTION_DDOT": 0}, "tle": {"line1": "1 33816U 93036BH  25336.51393170  .00001017  00000+0  74314-3 0  9990", "line2": "2 33816  73.8935 122.7266 0265355 137.6408 224.5543 13.81758219845321"}}, "geometry": {"type": "Point", "coordinates": [-60.267608574864276, 7.570939048978055]}}, {"type": "Feature", "properties": {"norad_id": 33818, "name": "COSMOS 2251 DEB", "group": "cosmos-2251-debris", "lat": -47.92904816052666, "lon": 167.95382356418725, "alt_km": 551.9418716704768, "timestamp": "2025-12-02T23:34:15.909753+00:00", "meta": {"OBJECT_NAME": "COSMOS 2251 DEB", "OBJECT_ID": "1993-036BK", "EPOCH": "2025-12-02T06:51:48.050784", "MEAN_MOTION": 15.11305119, "ECCENTRICITY": 0.0029331, "INCLINATION": 74.0759, "RA_OF_ASC_NODE": 187.829, "ARG_OF_PERICENTER": 179.7011, "MEAN_ANOMALY": 303.5901, "EPHEMERIS_TYPE": 0, "CLASSIFICATION_TYPE": "U", "NORAD_CAT_ID": 33818, "ELEMENT_SET_NO": 999, "REV_AT_EPOCH": 89704, "BSTAR": 0.0023095, "MEAN_MOTION_DOT": 0.00039484, "MEAN_MOTION_DDOT": 0}, "tle": {"line1": "1 33818U 93036BK  25336.28597281  .00039484  00000+0  23095-2 0  9993", "line2": "2 33818  74.0759 187.8290 0029331 179.7011 303.5901 15.11305119897042"}}, "geometry": {"type": "Point", "coordinates": [167.95382356418725, -47.92904816052666]}}, {"type": "Feature", "properties": {"norad_id": 33819, "name": "COSMOS 2251 DEB", "group": "cosmos-2251-debris", "lat": -9.081484778365587, "lon": -135.10375072275593, "alt_km": 800.0246072455157, "timestamp": "2025-12-02T23:34:15.909763+00:00", "meta": {"OBJECT_NAME": "COSMOS 2251 DEB", "OBJECT_ID": "1993-036BL", "EPOCH": "2025-12-02T04:12:21.098880", "MEAN_MOTION": 14.32161014, "ECCENTRICITY": 0.00887308, "INCLINATION": 74.1798, "RA_OF_ASC_NODE": 228.9526, "ARG_OF_PERICENTER": 93.5544, "MEAN_ANOMALY": 59.6789, "EPHEMERIS_TYPE": 0, "CLASSIFICATION_TYPE": "U", "NORAD_CAT_ID": 33819, "ELEMENT_SET_NO": 999, "REV_AT_EPOCH": 87344, "BSTAR": 0.00074767135, "MEAN_MOTION_DOT": 2.078e-05, "MEAN_MOTION_DDOT": 0}, "tle": {"line1": "1 33819U 93036BL  25336.17524420  .00002078  00000+0  74767-3 0  9999", "line2": "2 33819  74.1798 228.9526 0088730  93.5544  59.6789 14.32161014873445"}}, "geometry": {"type": "Point", "coordinates": [-135.10375072275593, -9.081484778365587]}}, {"type": "Feature", "properties": {"norad_id": 33821, "name": "COSMOS 2251 DEB", "group": "cosmos-2251-debris", "lat": 16.157322908377832, "lon": 168.21051011942498, "alt_km": 530.2869102484437, "timestamp": "2025-12-02T23:34:15.909774+00:00", "meta": {"OBJECT_NAME": "COSMOS 2251 DEB", "OBJECT_ID": "1993-036BN", "EPOCH": "2025-12-02T12:28:16.395744", "MEAN_MOTION": 15.2439638, "ECCENTRICITY": 0.0054483, "INCLINATION": 74.03, "RA_OF_ASC_NODE": 164.4272, "ARG_OF_PERICENTER": 200.6476, "MEAN_ANOMALY": 159.2524, "EPHEMERIS_TYPE": 0, "CLASSIFICATION_TYPE": "U", "NORAD_CAT_ID": 33821, "ELEMENT_SET_NO": 999, "REV_AT_EPOCH": 74845, "BSTAR": 0.0012281, "MEAN_MOTION_DOT": 0.0003149, "MEAN_MOTION_DDOT": 0}, "tle": {"line1": "1 33821U 93036BN  25336.51963421  .00031490  00000+0  12281-2 0  9990", "line2": "2 33821  74.0300 164.4272 0054483 200.6476 159.2524 15.24396380748455"}}, "geometry": {"type": "Point", "coordinates": [168.21051011942498, 16.157322908377832]}}, {"type": "Feature", "properties": {"norad_id": 33822, "name": "COSMOS 2251 DEB", "group": "cosmos-2251-debris", "lat": 47.97570007246154, "lon": 12.430509687851835, "alt_km": 915.2583506160081, "timestamp": "2025-12-02T23:34:15.909785+00:00", "meta": {"OBJECT_NAME": "COSMOS 2251 DEB", "OBJECT_ID": "1993-036BP", "EPOCH": "2025-12-02T03:09:17.363808", "MEAN_MOTION": 14.12986397, "ECCENTRICITY": 0.01540583, "INCLINATION": 74.0703, "RA_OF_ASC_NODE": 212.4081, "ARG_OF_PERICENTER": 261.1851, "MEAN_ANOMALY": 224.0386, "EPHEMERIS_TYPE": 0, "CLASSIFICATION_TYPE": "U", "NORAD_CAT_ID": 33822, "ELEMENT_SET_NO": 999, "REV_AT_EPOCH": 85904, "BSTAR": 0.0014509558, "MEAN_MOTION_DOT": 3.003e-05, "MEAN_MOTION_DDOT": 0}, "tle": {"line1": "1 33822U 93036BP  25336.13145097  .00003003  00000+0  14510-2 0  9996", "line2": "2 33822  74.0703 212.4081 0154058 261.1851 224.0386 14.12986397859047"}}, "geometry": {"type": "Point", "coordinates": [12.430509687851835, 47.97570007246154]}}, {"type": "Feature", "properties": {"norad_id": 33823, "name": "COSMOS 2251 DEB", "group": "cosmos-2251-debris", "lat": 73.72170408034353, "lon": -109.31195235702302, "alt_km": 1027.8454772565092, "timestamp": "2025-12-02T23:34:15.909795+00:00", "meta": {"OBJECT_NAME": "COSMOS 2251 DEB", "OBJECT_ID": "1993-036BQ", "EPOCH": "2025-12-02T06:51:19.414368", "MEAN_MOTION": 13.98909048, "ECCENTRICITY": 0.0209247, "INCLINATION": 73.8087, "RA_OF_ASC_NODE": 167.6512, "ARG_OF_PERICENTER": 294.4982, "MEAN_ANOMALY": 246.6558, "EPHEMERIS_TYPE": 0, "CLASSIFICATION_TYPE": "U", "NORAD_CAT_ID": 33823, "ELEMENT_SET_NO": 999, "REV_AT_EPOCH": 85463, "BSTAR": 0.00091011, "MEAN_MOTION_DOT": 1.557e-05, "MEAN_MOTION_DDOT": 0}, "tle": {"line1": "1 33823U 93036BQ  25336.28564137  .00001557  00000+0  91011-3 0  9997", "line2": "2 33823  73.8087 167.6512 0209247 294.4982 246.6558 13.98909048854637"}}, "geometry": {"type": "Point", "coordinates": [-109.31195235702302, 73.72170408034353]}}]}